NORAD_CAT_ID,OBJECT_NAME,OBJECT_TYPE,EPOCH,MEAN_MOTION,ECCENTRICITY,INCLINATION,RA_OF_ASC_NODE,ARG_OF_PERICENTER,MEAN_ANOMALY,BSTAR,MEAN_MOTION_DOT,MEAN_MOTION_DDOT,TLE_LINE0,TLE_LINE1,TLE_LINE2,SEMIMAJOR_AXIS,PERIOD,APOGEE,PERIGEE,DECAYED
53933.0,STARLINK-4782,PAYLOAD,2024-06-03 03:36:41,15.08828816,0.0002338,53.2201,317.4284,79.546,280.5795,0.00017596,2.512e-05,0.0,0 STARLINK-4782,1 53933U 22119AZ  24155.15048110  .00002512  00000-0  17596-3 0  9996,2 53933  53.2201 317.4284 0002338  79.5460 280.5795 15.08828816 94246,6917.915,95.438,541.397,538.162,0.0
53933.0,STARLINK-4782,PAYLOAD,2024-06-03 17:55:09,15.08839982,0.0001091,53.2181,314.7505,68.133,291.9779,8.3061e-05,1.034e-05,0.0,0 STARLINK-4782,1 53933U 22119AZ  24155.74663263  .00001034  00000-0  83061-4 0  9992,2 53933  53.2181 314.7505 0001091  68.1330 291.9779 15.08839982 94338,6917.88,95.438,540.5,538.991,0.0
53933.0,STARLINK-4782,PAYLOAD,2024-06-04 03:27:28,15.08838196,0.0001041,53.2173,312.9666,68.7615,291.3488,6.5423e-05,7.54e-06,0.0,0 STARLINK-4782,1 53933U 22119AZ  24156.14407481  .00000754  00000-0  65423-4 0  9995,2 53933  53.2173 312.9666 0001041  68.7615 291.3488 15.08838196 94814,6917.886,95.438,540.471,539.031,0.0
53933.0,STARLINK-4782,PAYLOAD,2024-06-05 03:18:14,15.08841125,0.0001028,53.2196,308.5084,91.2543,268.8567,4.211e-05,3.82e-06,0.0,0 STARLINK-4782,1 53933U 22119AZ  24157.13767247  .00000382  00000-0  42110-4 0  9999,2 53933  53.2196 308.5084 0001028  91.2543 268.8567 15.08841125 94543,6917.877,95.437,540.453,539.031,0.0
53933.0,STARLINK-4782,PAYLOAD,2024-06-05 09:39:48,15.08832439,0.0001191,53.2167,307.3169,87.9622,272.1507,-1.8378e-05,-5.8e-06,0.0,0 STARLINK-4782,1 53933U 22119AZ  24157.40264191 -.00000580  00000-0 -18378-4 0  9990,2 53933  53.2167 307.3169 0001191  87.9622 272.1507 15.08832439 94587,6917.904,95.438,540.592,538.945,0.0
53933.0,STARLINK-4782,PAYLOAD,2024-06-05 16:01:21,15.08814432,0.0001289,53.2118,306.1283,97.2272,262.8866,0.00028433,4.237e-05,0.0,0 STARLINK-4782,1 53933U 22119AZ  24157.66760929  .00004237  00000-0  28433-3 0  9991,2 53933  53.2118 306.1283 0001289  97.2272 262.8866 15.08814432 94622,6917.959,95.439,540.715,538.932,0.0
53933.0,STARLINK-4782,PAYLOAD,2024-06-06 03:09:02,15.08824907,0.0001263,53.2117,304.0463,96.558,263.5556,0.00020756,3.016e-05,0.0,0 STARLINK-4782,1 53933U 22119AZ  24158.13128251  .00003016  00000-0  20756-3 0  9994,2 53933  53.2117 304.0463 0001263  96.5580 263.5556 15.08824907 94693,6917.927,95.439,540.665,538.918,0.0
53933.0,STARLINK-4782,PAYLOAD,2024-06-06 19:02:52,15.0884424,0.0001152,53.2106,301.0714,97.9887,262.1236,0.00016424,2.327e-05,0.0,0 STARLINK-4782,1 53933U 22119AZ  24158.79366842  .00002327  00000-0  16424-3 0  9997,2 53933  53.2106 301.0714 0001152  97.9887 262.1236 15.08844240 94792,6917.867,95.437,540.529,538.935,0.0
53933.0,STARLINK-4782,PAYLOAD,2024-06-07 09:21:21,15.0884247,0.0002894,53.2091,298.3941,89.8863,270.2461,0.00010411,1.369e-05,0.0,0 STARLINK-4782,1 53933U 22119AZ  24159.38983754  .00001369  00000-0  10411-3 0  9995,2 53933  53.2091 298.3941 0002894  89.8863 270.2461 15.08842470 94886,6917.873,95.437,541.74,537.736,0.0
53933.0,STARLINK-4782,PAYLOAD,2024-06-07 15:42:54,15.08843227,0.0002423,53.2043,297.2037,92.2115,267.9154,-3.494e-05,-8.45e-06,0.0,0 STARLINK-4782,1 53933U 22119AZ  24159.65479862 -.00000845  00000-0 -34940-4 0  9999,2 53933  53.2043 297.2037 0002423  92.2115 267.9154 15.08843227 95348,6917.871,95.437,541.412,538.059,0.0
53933.0,STARLINK-4782,PAYLOAD,2024-06-08 12:22:53,15.08891779,0.0001264,53.2141,293.3414,76.3098,283.8034,-0.0005087,-8.386e-05,0.0,0 STARLINK-4782,1 53933U 22119AZ  24160.51589516 -.00008386  00000-0 -50870-3 0  9991,2 53933  53.2141 293.3414 0001264  76.3098 283.8034 15.08891779 95055,6917.722,95.434,540.462,538.713,0.0
53933.0,STARLINK-4782,PAYLOAD,2024-06-08 18:44:26,15.08850813,0.0001003,53.2184,292.1521,104.9773,255.133,0.00028267,4.215e-05,0.0,0 STARLINK-4782,1 53933U 22119AZ  24160.78085951  .00004215  00000-0  28267-3 0  9994,2 53933  53.2184 292.1521 0001003 104.9773 255.1330 15.08850813 95096,6917.847,95.437,540.406,539.018,0.0
53933.0,STARLINK-4782,PAYLOAD,2024-06-09 12:13:43,15.08826139,9.54e-05,53.217,288.8832,95.3594,264.7507,-1.306e-05,-4.95e-06,0.0,0 STARLINK-4782,1 53933U 22119AZ  24161.50953136 -.00000495  00000-0 -13060-4 0  9998,2 53933  53.2170 288.8832 0000954  95.3594 264.7507 15.08826139 95205,6917.923,95.438,540.448,539.128,0.0
53933.0,STARLINK-4782,PAYLOAD,2024-06-09 15:24:29,15.08834539,9.13e-05,53.2164,288.2877,99.1376,260.9719,1.1359e-05,-1.07e-06,0.0,0 STARLINK-4782,1 53933U 22119AZ  24161.64200311 -.00000107  00000-0  11359-4 0  9991,2 53933  53.2164 288.2877 0000913  99.1376 260.9719 15.08834539 95640,6917.897,95.438,540.394,539.13,0.0
53933.0,STARLINK-4782,PAYLOAD,2024-06-10 13:39:52,15.08844561,0.00012,53.2168,284.1256,106.5294,253.583,9.0328e-05,1.15e-05,0.0,0 STARLINK-4782,1 53933U 22119AZ  24162.56936023  .00001150  00000-0  90328-4 0  9990,2 53933  53.2168 284.1256 0001200 106.5294 253.5830 15.08844561 95785,6917.866,95.437,540.562,538.901,0.0
53933.0,STARLINK-4782,PAYLOAD,2024-06-10 15:15:15,15.08846035,0.0001276,53.2173,283.8287,107.6128,252.5004,0.00022632,3.316e-05,0.0,0 STARLINK-4782,1 53933U 22119AZ  24162.63560018  .00003316  00000-0  22632-3 0  9993,2 53933  53.2173 283.8287 0001276 107.6128 252.5004 15.08846035 95377,6917.862,95.437,540.61,538.844,0.0
53933.0,STARLINK-4782,PAYLOAD,2024-06-11 13:30:40,15.08843281,0.0001007,53.2198,279.6697,98.1874,261.9232,0.00014081,1.954e-05,0.0,0 STARLINK-4782,1 53933U 22119AZ  24163.56296490  .00001954  00000-0  14081-3 0  9991,2 53933  53.2198 279.6697 0001007  98.1874 261.9232 15.08843281 95935,6917.87,95.437,540.432,539.039,0.0
53933.0,STARLINK-4782,PAYLOAD,2024-06-12 00:38:21,15.08839971,7.66e-05,53.2155,277.5776,61.9261,298.1809,1.6855e-05,-1.9e-07,0.0,0 STARLINK-4782,1 53933U 22119AZ  24164.02664231 -.00000019  00000-0  16855-4 0  9999,2 53933  53.2155 277.5776 0000766  61.9261 298.1809 15.08839971 95586,6917.88,95.438,540.275,539.216,0.0
53933.0,STARLINK-4782,PAYLOAD,2024-06-12 06:59:54,15.08832658,0.000145,53.2155,276.3915,88.5627,271.5531,-0.00013618,-2.454e-05,0.0,0 STARLINK-4782,1 53933U 22119AZ  24164.29160758 -.00002454  00000-0 -13618-3 0  9992,2 53933  53.2155 276.3915 0001450  88.5627 271.5531 15.08832658 96044,6917.903,95.438,540.771,538.765,0.0
53933.0,STARLINK-4782,PAYLOAD,2024-06-12 14:56:50,15.0883741,0.0001078,53.2165,274.9071,92.9806,267.1309,-2.0951e-05,-6.21e-06,0.0,0 STARLINK-4782,1 53933U 22119AZ  24164.62280677 -.00000621  00000-0 -20951-4 0  9995,2 53933  53.2165 274.9071 0001078  92.9806 267.1309 15.08837410 96096,6917.888,95.438,540.499,539.008,0.0
53933.0,STARLINK-4782,PAYLOAD,2024-06-13 13:12:14,15.0884563,0.0001131,53.2172,270.7461,93.1905,266.9217,0.00026764,3.975e-05,0.0,0 STARLINK-4782,1 53933U 22119AZ  24165.55016543  .00003975  00000-0  26764-3 0  9997,2 53933  53.2172 270.7461 0001131  93.1905 266.9217 15.08845630 95811,6917.863,95.437,540.511,538.946,0.0
53933.0,STARLINK-4782,PAYLOAD,2024-06-14 13:03:01,15.08843337,0.000126,53.2158,266.2839,107.3388,252.7742,0.00017719,2.533e-05,0.0,0 STARLINK-4782,1 53933U 22119AZ  24166.54376598  .00002533  00000-0  17719-3 0  9995,2 53933  53.2158 266.2839 0001260 107.3388 252.7742 15.08843337 96381,6917.87,95.437,540.607,538.864,0.0
53933.0,STARLINK-4782,PAYLOAD,2024-06-15 12:53:48,15.0884803,0.0001199,53.2161,261.8218,100.8154,259.2973,0.00012805,1.751e-05,0.0,0 STARLINK-4782,1 53933U 22119AZ  24167.53736230  .00001751  00000-0  12805-3 0  9990,2 53933  53.2161 261.8218 0001199 100.8154 259.2973 15.08848030 96537,6917.856,95.437,540.55,538.891,0.0
53933.0,STARLINK-4782,PAYLOAD,2024-06-16 12:44:35,15.08844157,0.0001088,53.2161,257.3628,92.2048,267.9068,8.3943e-05,1.049e-05,0.0,0 STARLINK-4782,1 53933U 22119AZ  24168.53096326  .00001049  00000-0  83943-4 0  9998,2 53933  53.2161 257.3628 0001088  92.2048 267.9068 15.08844157 96262,6917.868,95.437,540.485,538.98,0.0
53933.0,STARLINK-4782,PAYLOAD,2024-06-17 22:07:41,15.08840308,0.0001163,53.2177,251.119,89.7235,270.3891,-4.1121e-06,-3.53e-06,0.0,0 STARLINK-4782,1 53933U 22119AZ  24169.92200912 -.00000353  00000-0 -41121-5 0  9992,2 53933  53.2177 251.1190 0001163  89.7235 270.3891 15.08840308 96893,6917.879,95.438,540.549,538.94,0.0
53933.0,STARLINK-4782,PAYLOAD,2024-06-18 12:26:09,15.08838426,0.0001141,53.2184,248.4446,76.6575,283.4544,7.8254e-05,9.58e-06,0.0,0 STARLINK-4782,1 53933U 22119AZ  24170.51817077  .00000958  00000-0  78254-4 0  9990,2 53933  53.2184 248.4446 0001141  76.6575 283.4544 15.08838426 96980,6917.885,95.438,540.54,538.961,0.0
53933.0,STARLINK-4782,PAYLOAD,2024-06-18 21:58:29,15.08836077,0.0001193,53.2179,246.6615,98.8793,261.2334,6.0893e-06,-1.91e-06,0.0,0 STARLINK-4782,1 53933U 22119AZ  24170.91561463 -.00000191  00000-0  60893-5 0  9990,2 53933  53.2179 246.6615 0001193  98.8793 261.2334 15.08836077 97046,6917.892,95.438,540.583,538.932,0.0
53933.0,STARLINK-4782,PAYLOAD,2024-06-19 13:52:20,15.08836325,0.0001281,53.218,243.6885,104.5215,255.5919,8.6478e-05,1.089e-05,0.0,0 STARLINK-4782,1 53933U 22119AZ  24171.57801594  .00001089  00000-0  86478-4 0  9997,2 53933  53.2180 243.6885 0001281 104.5215 255.5919 15.08836325 97148,6917.892,95.438,540.643,538.87,0.0
53933.0,STARLINK-4782,PAYLOAD,2024-06-20 13:43:07,15.08845362,0.0001358,53.218,239.224,80.027,280.0875,0.0001202,1.626e-05,0.0,0 STARLINK-4782,1 53933U 22119AZ  24172.57161168  .00001626  00000-0  12020-3 0  9992,2 53933  53.2180 239.2240 0001358  80.0270 280.0875 15.08845362 97299,6917.864,95.437,540.668,538.79,0.0
53933.0,STARLINK-4782,PAYLOAD,2024-06-21 04:01:35,15.08839143,0.0001564,53.2177,236.5471,84.6929,275.4242,0.0001082,1.434e-05,0.0,0 STARLINK-4782,1 53933U 22119AZ  24173.16777603  .00001434  00000-0  10820-3 0  9998,2 53933  53.2177 236.5471 0001564  84.6929 275.4242 15.08839143 96960,6917.883,95.438,540.83,538.666,0.0
